{
  "type": "FeatureCollection",
  "features": [
    {
      "type": "Feature",
      "properties": {
        "norad_id": 66891,
        "name": "STARLINK-35855",
        "group": "last-30-days",
        "lat": 20.852220188493884,
        "lon": 37.450690871416555,
        "alt_km": 356.21556238388166,
        "timestamp": "2025-12-23T07:45:08.117578+00:00",
        "meta_object_name": "STARLINK-35855",
        "meta_object_id": "2025-283P",
        "meta_epoch": "2025-12-22T22:00:03.000096",
        "meta_mean_motion": 15.71772652,
        "meta_eccentricity": 0.00013004,
        "meta_inclination": 53.1587,
        "meta_ra_of_asc_node": 22.8636,
        "meta_arg_of_pericenter": 102.5691,
        "meta_mean_anomaly": 144.8161,
        "meta_ephemeris_type": 0,
        "meta_classification_type": "U",
        "meta_norad_cat_id": 66891,
        "meta_element_set_no": 999,
        "meta_rev_at_epoch": 406,
        "meta_bstar": -0.016342864,
        "meta_mean_motion_dot": -0.01878336,
        "meta_mean_motion_ddot": 0,
        "tle_line1": "1 66891U 25283P   25356.91670139 -.01878336  00000+0 -16343-1 0  9992",
        "tle_line2": "2 66891  53.1587  22.8636 0001300 102.5691 144.8161 15.71772652  4064"
      },
      "geometry": {
        "type": "Point",
        "coordinates": [
          37.450690871416555,
          20.852220188493884
        ]
      }
    },
    {
      "type": "Feature",
      "properties": {
        "norad_id": 66892,
        "name": "STARLINK-35883",
        "group": "last-30-days",
        "lat": 22.319571300711832,
        "lon": 38.77880509777319,
        "alt_km": 355.90477386236034,
        "timestamp": "2025-12-23T07:45:08.117587+00:00",
        "meta_object_name": "STARLINK-35883",
        "meta_object_id": "2025-283Q",
        "meta_epoch": "2025-12-22T22:00:03.000096",
        "meta_mean_motion": 15.71779022,
        "meta_eccentricity": 0.0001192,
        "meta_inclination": 53.1587,
        "meta_ra_of_asc_node": 22.8592,
        "meta_arg_of_pericenter": 96.8095,
        "meta_mean_anomaly": 152.4881,
        "meta_ephemeris_type": 0,
        "meta_classification_type": "U",
        "meta_norad_cat_id": 66892,
        "meta_element_set_no": 999,
        "meta_rev_at_epoch": 400,
        "meta_bstar": -0.016400552,
        "meta_mean_motion_dot": -0.01884425,
        "meta_mean_motion_ddot": 0,
        "tle_line1": "1 66892U 25283Q   25356.91670139 -.01884425  00000+0 -16401-1 0  9994",
        "tle_line2": "2 66892  53.1587  22.8592 0001192  96.8095 152.4881 15.71779022  4004"
      },
      "geometry": {
        "type": "Point",
        "coordinates": [
          38.77880509777319,
          22.319571300711832
        ]
      }
    },
    {
      "type": "Feature",
      "properties": {
        "norad_id": 66893,
        "name": "STARLINK-36033",
        "group": "last-30-days",
        "lat": 23.774351846754374,
        "lon": 40.13420637853347,
        "alt_km": 355.5872610971146,
        "timestamp": "2025-12-23T07:45:08.117599+00:00",
        "meta_object_name": "STARLINK-36033",
        "meta_object_id": "2025-283R",
        "meta_epoch": "2025-12-22T22:00:03.000096",
        "meta_mean_motion": 15.71772014,
        "meta_eccentricity": 0.00012045,
        "meta_inclination": 53.1588,
        "meta_ra_of_asc_node": 22.8553,
        "meta_arg_of_pericenter": 91.8306,
        "meta_mean_anomaly": 159.3893,
        "meta_ephemeris_type": 0,
        "meta_classification_type": "U",
        "meta_norad_cat_id": 66893,
        "meta_element_set_no": 999,
        "meta_rev_at_epoch": 406,
        "meta_bstar": -0.016349477,
        "meta_mean_motion_dot": -0.01878869,
        "meta_mean_motion_ddot": 0,
        "tle_line1": "1 66893U 25283R   25356.91670139 -.01878869  00000+0 -16349-1 0  9991",
        "tle_line2": "2 66893  53.1588  22.8553 0001204  91.8306 159.3893 15.71772014  4066"
      },
      "geometry": {
        "type": "Point",
        "coordinates": [
          40.13420637853347,
          23.774351846754374
        ]
      }
    },
    {
      "type": "Feature",
      "properties": {
        "norad_id": 66894,
        "name": "STARLINK-35718",
        "group": "last-30-days",
        "lat": 25.216005745944955,
        "lon": 41.520033824021546,
        "alt_km": 355.29305154213944,
        "timestamp": "2025-12-23T07:45:08.117611+00:00",
        "meta_object_name": "STARLINK-35718",
        "meta_object_id": "2025-283S",
        "meta_epoch": "2025-12-22T22:00:03.000096",
        "meta_mean_motion": 15.71776993,
        "meta_eccentricity": 0.00012609,
        "meta_inclination": 53.1588,
        "meta_ra_of_asc_node": 22.8521,
        "meta_arg_of_pericenter": 91.2016,
        "meta_mean_anomaly": 161.9285,
        "meta_ephemeris_type": 0,
        "meta_classification_type": "U",
        "meta_norad_cat_id": 66894,
        "meta_element_set_no": 999,
        "meta_rev_at_epoch": 406,
        "meta_bstar": -0.016370328,
        "meta_mean_motion_dot": -0.01881337,
        "meta_mean_motion_ddot": 0,
        "tle_line1": "1 66894U 25283S   25356.91670139 -.01881337  00000+0 -16370-1 0  9990",
        "tle_line2": "2 66894  53.1588  22.8521 0001260  91.2016 161.9285 15.71776993  4060"
      },
      "geometry": {
        "type": "Point",
        "coordinates": [
          41.520033824021546,
          25.216005745944955
        ]
      }
    },
    {
      "type": "Feature",
      "properties": {
        "norad_id": 66895,
        "name": "STARLINK-35971",
        "group": "last-30-days",
        "lat": 28.06372349560125,
        "lon": 44.39663183608581,
        "alt_km": 354.93696068805184,
        "timestamp": "2025-12-23T07:45:08.117621+00:00",
        "meta_object_name": "STARLINK-35971",
        "meta_object_id": "2025-283T",
        "meta_epoch": "2025-12-22T22:00:03.000096",
        "meta_mean_motion": 15.71774151,
        "meta_eccentricity": 9.186e-05,
        "meta_inclination": 53.1586,
        "meta_ra_of_asc_node": 22.8425,
        "meta_arg_of_pericenter": 78.1733,
        "meta_mean_anomaly": 178.797,
        "meta_ephemeris_type": 0,
        "meta_classification_type": "U",
        "meta_norad_cat_id": 66895,
        "meta_element_set_no": 999,
        "meta_rev_at_epoch": 406,
        "meta_bstar": -0.016386254,
        "meta_mean_motion_dot": -0.01882438,
        "meta_mean_motion_ddot": 0,
        "tle_line1": "1 66895U 25283T   25356.91670139 -.01882438  00000+0 -16386-1 0  9991",
        "tle_line2": "2 66895  53.1586  22.8425 0000918  78.1733 178.7970 15.71774151  4062"
      },
      "geometry": {
        "type": "Point",
        "coordinates": [
          44.39663183608581,
          28.06372349560125
        ]
      }
    },
    {
      "type": "Feature",
      "properties": {
        "norad_id": 66896,
        "name": "STARLINK-35791",
        "group": "last-30-days",
        "lat": 26.648389848614883,
        "lon": 42.941583783583056,
        "alt_km": 355.33296606085605,
        "timestamp": "2025-12-23T07:45:08.117632+00:00",
        "meta_object_name": "STARLINK-35791",
        "meta_object_id": "2025-283U",
        "meta_epoch": "2025-12-22T22:00:03.000096",
        "meta_mean_motion": 15.71778577,
        "meta_eccentricity": 9.02e-05,
        "meta_inclination": 53.1587,
        "meta_ra_of_asc_node": 22.8473,
        "meta_arg_of_pericenter": 93.5748,
        "meta_mean_anomaly": 161.4738,
        "meta_ephemeris_type": 0,
        "meta_classification_type": "U",
        "meta_norad_cat_id": 66896,
        "meta_element_set_no": 999,
        "meta_rev_at_epoch": 406,
        "meta_bstar": -0.016401289,
        "meta_mean_motion_dot": -0.01922504,
        "meta_mean_motion_ddot": 0,
        "tle_line1": "1 66896U 25283U   25356.91670139 -.01922504  00000+0 -16401-1 0  9999",
        "tle_line2": "2 66896  53.1587  22.8473 0000902  93.5748 161.4738 15.71778577  4064"
      },
      "geometry": {
        "type": "Point",
        "coordinates": [
          42.941583783583056,
          26.648389848614883
        ]
      }
    },
    {
      "type": "Feature",
      "properties": {
        "norad_id": 66897,
        "name": "STARLINK-36079",
        "group": "last-30-days",
        "lat": 29.461686157359075,
        "lon": 45.889895092188894,
        "alt_km": 354.5565294422413,
        "timestamp": "2025-12-23T07:45:08.117644+00:00",
        "meta_object_name": "STARLINK-36079",
        "meta_object_id": "2025-283V",
        "meta_epoch": "2025-12-22T22:00:03.000096",
        "meta_mean_motion": 15.71775803,
        "meta_eccentricity": 0.00011747,
        "meta_inclination": 53.159,
        "meta_ra_of_asc_node": 22.8393,
        "meta_arg_of_pericenter": 90.6489,
        "meta_mean_anomaly": 168.2342,
        "meta_ephemeris_type": 0,
        "meta_classification_type": "U",
        "meta_norad_cat_id": 66897,
        "meta_element_set_no": 999,
        "meta_rev_at_epoch": 406,
        "meta_bstar": -0.016370043,
        "meta_mean_motion_dot": -0.01881153,
        "meta_mean_motion_ddot": 0,
        "tle_line1": "1 66897U 25283V   25356.91670139 -.01881153  00000+0 -16370-1 0  9999",
        "tle_line2": "2 66897  53.1590  22.8393 0001174  90.6489 168.2342 15.71775803  4067"
      },
      "geometry": {
        "type": "Point",
        "coordinates": [
          45.889895092188894,
          29.461686157359075
        ]
      }
    }
  ]
}